SL-16 R/B               
1 28353U 04021B   16084.07322059  .00000283  00000-0  17349-3 0  9995
2 28353  71.0002 302.4078 0005132 184.3690 175.7388 14.14171124608525
CZ-2C R/B               
1 28480U 04046B   16085.19305821  .00000057  00000-0  36584-4 0  9997
2 28480  98.1710 204.6956 0143344 109.6622 302.7016 14.25581230590269
ARIANE 5 R/B            
1 28499U 04049H   16085.18204269  .00000164  00000-0  27982-4 0  9994
2 28499  98.1161 158.6197 0091818 223.9817 157.2007 14.79659165607598
CZ-2D R/B               
1 28738U 05024B   16084.55228596  .00001030  00000-0  66561-4 0  9992
2 28738  97.5523 122.8587 0013976 108.4716 251.8033 15.10369537587920
SUZAKU (ASTRO-EII)      
1 28773U 05025A   16084.98122195  .00001958  00000-0  99188-4 0  9997
2 28773  31.3839 326.7253 0004657 166.6764 193.4006 15.14507279589165
ALOS (DAICHI)           
1 28931U 06002A   16085.18117827  .00000271  00000-0  62744-4 0  9993
2 28931  97.8954 127.7402 0000766  72.1679 287.9607 14.62152883541842
H-2A R/B                
1 28932U 06002B   16085.55833197  .00000925  00000-0  93630-4 0  9994
2 28932  98.2228 344.4157 0090737 341.6975 107.8335 14.90773027550957
AKARI (ASTRO-F)         
1 28939U 06005A   16085.19684868  .00004857  00000-0  16652-3 0  9999
2 28939  98.2284 233.4015 0115962 299.6492  59.3234 15.24514058544609
RESURS-DK 1             
1 29228U 06021A   16085.51780931  .00000561  00000-0  50352-4 0  9997
2 29228  69.9375 159.3419 0007439 292.6491  67.3875 15.01842446540732
GENESIS 1               
1 29252U 06029A   16084.77040116  .00001249  00000-0  74597-4 0  9994
2 29252  64.5053 312.2956 0038596 236.1433 190.8203 15.15784657533694
CZ-4B R/B               
1 29507U 06046C   16085.49160360  .00001340  00000-0  11231-3 0  9997
2 29507  97.7886  86.7808 0037104 340.8278  19.1546 14.99650375513783
CZ-2C R/B               
1 31114U 07010B   16084.75325816  .00000041  00000-0  37994-4 0  9995
2 31114  98.4158   3.9949 0060962  80.0539 280.7512 14.19195757463770
COSMO-SKYMED 1          
1 31598U 07023A   16085.56751755 -.00000402  00000-0 -44011-4 0  9991
2 31598  97.8761 270.2942 0001366  83.9985 276.1340 14.82163417475994
GENESIS 2               
1 31789U 07028A   16085.31005048  .00001163  00000-0  70753-4 0  9993
2 31789  64.5057 346.9147 0052829 277.7033  81.8091 15.15051461480879
COSMOS 2428             
1 31792U 07029A   16085.38735880  .00000137  00000-0  10000-3 0  9997
2 31792  70.9472 273.9668 0009442 242.6123 191.5461 14.12413111450705
SL-16 R/B               
1 31793U 07029B   16085.55450043 -.00000187  00000-0 -73000-4 0  9999
2 31793  70.9748 251.4979 0002093 270.1340 156.5135 14.14360442451283
KORONAS-FOTON           
1 33504U 09003A   16084.17351969  .00000695  00000-0  36259-4 0  9996
2 33504  82.4435 319.9527 0018716 221.4124 138.5690 15.14164514393366
TIANGONG 1              
1 37820U 11053A   16085.29973192  .00017299  00000-0  20855-3 0  9993
2 37820  42.7649  28.1916 0012415 193.1901 296.8829 15.60384020257465
CUSAT 2 & FALCON 9 R/B  
1 39271U 13055G   16085.16489219  .00010361  00000-0  27697-3 0  9991
2 39271  80.9673 109.5659 0665885  83.6832 283.9710 14.29503995128288
